GLOBALSTAR M035 [-]     
1 25851U 99037A   24041.36326698 -.00000003  00000+0  22902-2 0  9993
2 25851  51.9955  73.9946 0013568 261.3151 194.7205 11.04528638 41806
GLOBALSTAR M032 [-]     
1 25852U 99037B   24041.88947668 -.00000085  00000+0 -60068-3 0  9994
2 25852  51.9956 291.9935 0010333  58.4739 301.7069 11.19050196 79671
GLOBALSTAR M051 [-]     
1 25853U 99037C   24041.53142717 -.00000097  00000+0 -60723-3 0  9990
2 25853  51.9786 149.3505 0001986  75.5143 284.5888 11.42195504 76094
GLOBALSTAR M030 [-]     
1 25854U 99037D   24042.13141902 -.00000028  00000+0  10034-2 0  9995
2 25854  51.9910 345.2974 0003428 246.6904 113.3552 11.55088582 93288
GLOBALSTAR M048 [-]     
1 25872U 99041A   24041.51775279 -.00000058  00000+0  32928-3 0  9991
2 25872  51.9375  65.3656 0013169  53.3020 117.0993 11.33842978 69090
GLOBALSTAR M026 [-]     
1 25873U 99041B   24041.69138187 -.00000058  00000+0  23975-3 0  9994
2 25873  51.9974 196.4125 0001991 132.5925 321.1068 11.06834403 93954
GLOBALSTAR M043 [-]     
1 25874U 99041C   24041.62917351 -.00000087  00000+0 -55856-3 0  9992
2 25874  51.9387 153.1140 0013218 189.4071 274.8302 11.25674323 67408
GLOBALSTAR M028 [-]     
1 25875U 99041D   24041.65409777 -.00000088  00000+0  84403-4 0  9995
2 25875  51.9597 221.6697 0064528  82.0432 278.7746 12.50550433128552
